*******************************************************************************
Ephemeris / WWW_USER Thu Mar 11 18:40:32 2021 Pasadena, USA      / Horizons
*******************************************************************************
Target body name: Mercury (199)                   {source: DE431mx}
Center body name: Sun (10)                        {source: DE431mx}
Center-site name: BODY CENTER
*******************************************************************************
Start time      : A.D. 1800-Mar-20 00:00:00.0000 TDB
Stop  time      : A.D. 1800-Mar-22 00:00:00.0000 TDB
Step-size       : 1 minutes
*******************************************************************************
Center geodetic : 0.00000000,0.00000000,0.0000000 {E-lon(deg),Lat(deg),Alt(km)}
Center cylindric: 0.00000000,0.00000000,0.0000000 {E-lon(deg),Dxy(km),Dz(km)}
Center radii    : 696000.0 x 696000.0 x 696000.0 k{Equator, meridian, pole}    
Output units    : KM-S
Output type     : GEOMETRIC cartesian states
Output format   : 1 (position only)
Reference frame : Ecliptic of J2000.0
*******************************************************************************
            JDTDB,            Calendar Date (TDB),                      X,                      Y,                      Z,
**************************************************************************************************************************
$$SOE
2378575.506250000, A.D. 1800-Mar-21 00:09:00.0000,  1.130046304568702E+07,  4.452051279689731E+07,  2.582123499601401E+06,
2378575.506944444, A.D. 1800-Mar-21 00:10:00.0000,  1.129704532504491E+07,  4.452134483335895E+07,  2.582506704336934E+06,
2378575.507638889, A.D. 1800-Mar-21 00:11:00.0000,  1.129362754896967E+07,  4.452217665136035E+07,  2.582889896400439E+06,
2378575.508333333, A.D. 1800-Mar-21 00:12:00.0000,  1.129020971747800E+07,  4.452300825089724E+07,  2.583273075790027E+06,
2378575.509027778, A.D. 1800-Mar-21 00:13:00.0000,  1.128679183058665E+07,  4.452383963196536E+07,  2.583656242503818E+06,
2378575.509722222, A.D. 1800-Mar-21 00:14:00.0000,  1.128337388831233E+07,  4.452467079456046E+07,  2.584039396539917E+06,
2378575.510416667, A.D. 1800-Mar-21 00:15:00.0000,  1.127995589067178E+07,  4.452550173867829E+07,  2.584422537896428E+06,
2378575.511111111, A.D. 1800-Mar-21 00:16:00.0000,  1.127653783768171E+07,  4.452633246431458E+07,  2.584805666571453E+06,
2378575.511805556, A.D. 1800-Mar-21 00:17:00.0000,  1.127311972935886E+07,  4.452716297146508E+07,  2.585188782563120E+06,
2378575.512500000, A.D. 1800-Mar-21 00:18:00.0000,  1.126970156571996E+07,  4.452799326012555E+07,  2.585571885869525E+06,
2378575.513194445, A.D. 1800-Mar-21 00:19:00.0000,  1.126628334678174E+07,  4.452882333029172E+07,  2.585954976488790E+06,
2378575.513888889, A.D. 1800-Mar-21 00:20:00.0000,  1.126286507256091E+07,  4.452965318195937E+07,  2.586338054419013E+06,
2378575.514583333, A.D. 1800-Mar-21 00:21:00.0000,  1.125944674307421E+07,  4.453048281512423E+07,  2.586721119658310E+06,
2378575.515277778, A.D. 1800-Mar-21 00:22:00.0000,  1.125602835833837E+07,  4.453131222978206E+07,  2.587104172204792E+06,
2378575.515972222, A.D. 1800-Mar-21 00:23:00.0000,  1.125260991837013E+07,  4.453214142592863E+07,  2.587487212056568E+06,
2378575.516666667, A.D. 1800-Mar-21 00:24:00.0000,  1.124919142318621E+07,  4.453297040355968E+07,  2.587870239211749E+06,
2378575.517361111, A.D. 1800-Mar-21 00:25:00.0000,  1.124577287280333E+07,  4.453379916267098E+07,  2.588253253668448E+06,
2378575.518055555, A.D. 1800-Mar-21 00:26:00.0000,  1.124235426723824E+07,  4.453462770325831E+07,  2.588636255424768E+06,
2378575.518750000, A.D. 1800-Mar-21 00:27:00.0000,  1.123893560650767E+07,  4.453545602531740E+07,  2.589019244478825E+06,
2378575.519444444, A.D. 1800-Mar-21 00:28:00.0000,  1.123551689062834E+07,  4.453628412884404E+07,  2.589402220828732E+06,
2378575.520138889, A.D. 1800-Mar-21 00:29:00.0000,  1.123209811961699E+07,  4.453711201383398E+07,  2.589785184472596E+06,
2378575.520833333, A.D. 1800-Mar-21 00:30:00.0000,  1.122867929349036E+07,  4.453793968028303E+07,  2.590168135408532E+06,
2378575.521527778, A.D. 1800-Mar-21 00:31:00.0000,  1.122526041226518E+07,  4.453876712818691E+07,  2.590551073634645E+06,
2378575.522222222, A.D. 1800-Mar-21 00:32:00.0000,  1.122184147595817E+07,  4.453959435754143E+07,  2.590933999149049E+06,
2378575.522916667, A.D. 1800-Mar-21 00:33:00.0000,  1.121842248458609E+07,  4.454042136834233E+07,  2.591316911949860E+06,
2378575.523611111, A.D. 1800-Mar-21 00:34:00.0000,  1.121500343816565E+07,  4.454124816058542E+07,  2.591699812035186E+06,
2378575.524305556, A.D. 1800-Mar-21 00:35:00.0000,  1.121158433671360E+07,  4.454207473426647E+07,  2.592082699403135E+06,
2378575.525000000, A.D. 1800-Mar-21 00:36:00.0000,  1.120816518024668E+07,  4.454290108938125E+07,  2.592465574051822E+06,
2378575.525694444, A.D. 1800-Mar-21 00:37:00.0000,  1.120474596878161E+07,  4.454372722592554E+07,  2.592848435979353E+06,
2378575.526388889, A.D. 1800-Mar-21 00:38:00.0000,  1.120132670233514E+07,  4.454455314389513E+07,  2.593231285183858E+06,
2378575.527083333, A.D. 1800-Mar-21 00:39:00.0000,  1.119790738092401E+07,  4.454537884328581E+07,  2.593614121663431E+06,
2378575.527777778, A.D. 1800-Mar-21 00:40:00.0000,  1.119448800456494E+07,  4.454620432409336E+07,  2.593996945416184E+06,
2378575.528472222, A.D. 1800-Mar-21 00:41:00.0000,  1.119106857327469E+07,  4.454702958631356E+07,  2.594379756440237E+06,
2378575.529166667, A.D. 1800-Mar-21 00:42:00.0000,  1.118764908706999E+07,  4.454785462994222E+07,  2.594762554733701E+06,
2378575.529861111, A.D. 1800-Mar-21 00:43:00.0000,  1.118422954596758E+07,  4.454867945497512E+07,  2.595145340294691E+06,
2378575.530555556, A.D. 1800-Mar-21 00:44:00.0000,  1.118080994998419E+07,  4.454950406140805E+07,  2.595528113121305E+06,
2378575.531250000, A.D. 1800-Mar-21 00:45:00.0000,  1.117739029913657E+07,  4.455032844923682E+07,  2.595910873211669E+06,
2378575.531944444, A.D. 1800-Mar-21 00:46:00.0000,  1.117397059344146E+07,  4.455115261845720E+07,  2.596293620563898E+06,
2378575.532638889, A.D. 1800-Mar-21 00:47:00.0000,  1.117055083291560E+07,  4.455197656906502E+07,  2.596676355176104E+06,
2378575.533333333, A.D. 1800-Mar-21 00:48:00.0000,  1.116713101757574E+07,  4.455280030105606E+07,  2.597059077046376E+06,
2378575.534027778, A.D. 1800-Mar-21 00:49:00.0000,  1.116371114743860E+07,  4.455362381442614E+07,  2.597441786172863E+06,
2378575.534722222, A.D. 1800-Mar-21 00:50:00.0000,  1.116029122252095E+07,  4.455444710917105E+07,  2.597824482553655E+06,
2378575.535416667, A.D. 1800-Mar-21 00:51:00.0000,  1.115687124283951E+07,  4.455527018528660E+07,  2.598207166186867E+06,
2378575.536111111, A.D. 1800-Mar-21 00:52:00.0000,  1.115345120841104E+07,  4.455609304276859E+07,  2.598589837070623E+06,
2378575.536805556, A.D. 1800-Mar-21 00:53:00.0000,  1.115003111925227E+07,  4.455691568161284E+07,  2.598972495203024E+06,
2378575.537500000, A.D. 1800-Mar-21 00:54:00.0000,  1.114661097537995E+07,  4.455773810181515E+07,  2.599355140582195E+06,
2378575.538194444, A.D. 1800-Mar-21 00:55:00.0000,  1.114319077681083E+07,  4.455856030337135E+07,  2.599737773206238E+06,
2378575.538888889, A.D. 1800-Mar-21 00:56:00.0000,  1.113977052356165E+07,  4.455938228627723E+07,  2.600120393073272E+06,
2378575.539583333, A.D. 1800-Mar-21 00:57:00.0000,  1.113635021564916E+07,  4.456020405052863E+07,  2.600503000181412E+06,
2378575.540277778, A.D. 1800-Mar-21 00:58:00.0000,  1.113292985309010E+07,  4.456102559612136E+07,  2.600885594528774E+06,
2378575.540972222, A.D. 1800-Mar-21 00:59:00.0000,  1.112950943590122E+07,  4.456184692305123E+07,  2.601268176113462E+06,
2378575.541666667, A.D. 1800-Mar-21 01:00:00.0000,  1.112608896409927E+07,  4.456266803131408E+07,  2.601650744933600E+06,
2378575.542361111, A.D. 1800-Mar-21 01:01:00.0000,  1.112266843770099E+07,  4.456348892090571E+07,  2.602033300987301E+06,
2378575.543055556, A.D. 1800-Mar-21 01:02:00.0000,  1.111924785672314E+07,  4.456430959182196E+07,  2.602415844272671E+06,
2378575.543750000, A.D. 1800-Mar-21 01:03:00.0000,  1.111582722118245E+07,  4.456513004405866E+07,  2.602798374787832E+06,
2378575.544444445, A.D. 1800-Mar-21 01:04:00.0000,  1.111240653109568E+07,  4.456595027761161E+07,  2.603180892530896E+06,
2378575.545138889, A.D. 1800-Mar-21 01:05:00.0000,  1.110898578647959E+07,  4.456677029247668E+07,  2.603563397499975E+06,
2378575.545833333, A.D. 1800-Mar-21 01:06:00.0000,  1.110556498735091E+07,  4.456759008864969E+07,  2.603945889693191E+06,
2378575.546527778, A.D. 1800-Mar-21 01:07:00.0000,  1.110214413372640E+07,  4.456840966612644E+07,  2.604328369108651E+06,
2378575.547222222, A.D. 1800-Mar-21 01:08:00.0000,  1.109872322562281E+07,  4.456922902490281E+07,  2.604710835744478E+06,
2378575.547916667, A.D. 1800-Mar-21 01:09:00.0000,  1.109530226305689E+07,  4.457004816497461E+07,  2.605093289598776E+06,
2378575.548611111, A.D. 1800-Mar-21 01:10:00.0000,  1.109188124604539E+07,  4.457086708633770E+07,  2.605475730669672E+06,
2378575.549305555, A.D. 1800-Mar-21 01:11:00.0000,  1.108846017460507E+07,  4.457168578898790E+07,  2.605858158955270E+06,
2378575.550000000, A.D. 1800-Mar-21 01:12:00.0000,  1.108503904875268E+07,  4.457250427292106E+07,  2.606240574453689E+06,
2378575.550694444, A.D. 1800-Mar-21 01:13:00.0000,  1.108161786850496E+07,  4.457332253813301E+07,  2.606622977163041E+06,
2378575.551388889, A.D. 1800-Mar-21 01:14:00.0000,  1.107819663387868E+07,  4.457414058461963E+07,  2.607005367081458E+06,
2378575.552083333, A.D. 1800-Mar-21 01:15:00.0000,  1.107477534489059E+07,  4.457495841237673E+07,  2.607387744207032E+06,
2378575.552777778, A.D. 1800-Mar-21 01:16:00.0000,  1.107135400155744E+07,  4.457577602140018E+07,  2.607770108537897E+06,
2378575.553472222, A.D. 1800-Mar-21 01:17:00.0000,  1.106793260389598E+07,  4.457659341168582E+07,  2.608152460072162E+06,
